[{"OBJECT_NAME":"TECHSAT 1B (GO-32)","OBJECT_ID":"1998-043D","EPOCH":"2026-03-09T22:49:10.085952","MEAN_MOTION":14.24406169,"ECCENTRICITY":0.00020687,"INCLINATION":99.0027,"RA_OF_ASC_NODE":59.2298,"ARG_OF_PERICENTER":119.2453,"MEAN_ANOMALY":240.8932,"EPHEMERIS_TYPE":0,"CLASSIFICATION_TYPE":"U","NORAD_CAT_ID":25397,"ELEMENT_SET_NO":999,"REV_AT_EPOCH":43720,"BSTAR":6.9690511e-5,"MEAN_MOTION_DOT":1.15e-6,"MEAN_MOTION_DDOT":0},{"OBJECT_NAME":"FENGYUN 1C DEB","OBJECT_ID":"1999-025ASE","EPOCH":"2026-03-08T23:09:28.080576","MEAN_MOTION":14.29479833,"ECCENTRICITY":0.003231,"INCLINATION":99.043,"RA_OF_ASC_NODE":249.6426,"ARG_OF_PERICENTER":80.9363,"MEAN_ANOMALY":73.075,"EPHEMERIS_TYPE":0,"CLASSIFICATION_TYPE":"U","NORAD_CAT_ID":30720,"ELEMENT_SET_NO":999,"REV_AT_EPOCH":98720,"BSTAR":0.0010323953,"MEAN_MOTION_DOT":2.605e-5,"MEAN_MOTION_DDOT":0}]
